STARLINK-36237          
1 68337U 26059S   26102.75621109  .00320825  00000+0  15608-2 0  9992
2 68337  53.1583 192.0229 0001002  44.5395 315.5708 15.80991081  3365
STARLINK-36254          
1 68338U 26059T   26102.75471329  .00103525  00000+0  52104-3 0  9999
2 68338  53.1579 192.0120 0001549  85.3885 274.7315 15.80903604  3368
STARLINK-37200          
1 68339U 26059U   26102.75546381  .00119362  00000+0  59949-3 0  9991
2 68339  53.1582 192.0176 0001140 105.2357 254.8791 15.80889802  3367
STARLINK-37185          
1 68340U 26059V   26102.83335647 -.01905649  00000+0 -12263-1 0  9993
2 68340  53.1588 191.6081 0001176  88.8657   1.2549 15.78646390  4538
STARLINK-37181          
1 68341U 26059W   26102.75325767 -.00362729  00000+0 -19421-2 0  9996
2 68341  53.1581 192.0031 0002956  55.1190 305.0110 15.80526944  3362
STARLINK-37192          
1 68342U 26059X   26102.83335647 -.00918218  00000+0 -13928-1 0  9999
2 68342  53.1594 192.0707 0000962  83.7965 138.3050 15.56678492  4538
STARLINK-37158          
1 68343U 26059Y   26101.99234019  .00355884  00000+0  17279-2 0  9993
2 68343  53.1580 195.7892 0002087  54.8033 305.3185 15.80941664  3247
STARLINK-36380          
1 68344U 26059Z   26102.83335647 -.01874093  00000+0 -15282-1 0  9999
2 68344  53.1592 191.6346 0001025  68.8837   7.1578 15.73272047  4538
STARLINK-37214          
1 68345U 26059AA  26102.83335647 -.01848027  00000+0 -13106-1 0  9991
2 68345  53.1592 191.5662 0001086  69.1167  40.2465 15.76394216  4535
STARLINK-37169          
1 68346U 26059AB  26102.83335647 -.01854040  00000+0 -14499-1 0  9990
2 68346  53.1590 191.5784 0001073  80.1351  22.9732 15.74193340  4530
STARLINK-37136          
1 68347U 26059AC  26102.74795600  .00214294  00000+0  10579-2 0  9994
2 68347  53.1580 191.9668 0000780 104.9066 255.2043 15.80968411  3369
STARLINK-37182          
1 68348U 26059AD  26102.83335647 -.01848394  00000+0 -13184-1 0  9997
2 68348  53.1589 191.5760 0001062  69.3350  35.2599 15.76266571  4537
STARLINK-37183          
1 68349U 26059AE  26102.74720277  .00217784  00000+0  10741-2 0  9992
2 68349  53.1582 191.9623 0000796 122.1032 238.0068 15.80978427  3360
CENTISPACE-1 OBJECT A   
1 68350U 26060A   26100.54543581 -.00450719  00000+0 -71553-1 0  9999
2 68350  54.9791 311.6710 0014548 308.4164  51.5528 14.74168550  2791
CENTISPACE-1 OBJECT B   
1 68351U 26060B   26102.85163487  .00000932  00000+0  17271-3 0  9994
2 68351  54.9815 302.2763 0010601 332.1367  27.9063 14.73760028  3135
CENTISPACE-1 OBJECT C   
1 68352U 26060C   26102.78228109 -.00000090  00000+0  17699-4 0  9991
2 68352  54.9780 302.5556 0008807 348.4192  11.6603 14.73617049  3124
