[{"OBJECT_NAME":"STARLINK-36237","OBJECT_ID":"2026-059S","EPOCH":"2026-04-12T18:08:56.638176","MEAN_MOTION":15.80991081,"ECCENTRICITY":0.0001002,"INCLINATION":53.1583,"RA_OF_ASC_NODE":192.0229,"ARG_OF_PERICENTER":44.5395,"MEAN_ANOMALY":315.5708,"EPHEMERIS_TYPE":0,"CLASSIFICATION_TYPE":"U","NORAD_CAT_ID":68337,"ELEMENT_SET_NO":999,"REV_AT_EPOCH":336,"BSTAR":0.0015608,"MEAN_MOTION_DOT":0.00320825,"MEAN_MOTION_DDOT":0},{"OBJECT_NAME":"STARLINK-36254","OBJECT_ID":"2026-059T","EPOCH":"2026-04-12T18:06:47.228256","MEAN_MOTION":15.80903604,"ECCENTRICITY":0.0001549,"INCLINATION":53.1579,"RA_OF_ASC_NODE":192.012,"ARG_OF_PERICENTER":85.3885,"MEAN_ANOMALY":274.7315,"EPHEMERIS_TYPE":0,"CLASSIFICATION_TYPE":"U","NORAD_CAT_ID":68338,"ELEMENT_SET_NO":999,"REV_AT_EPOCH":336,"BSTAR":0.00052104,"MEAN_MOTION_DOT":0.00103525,"MEAN_MOTION_DDOT":0},{"OBJECT_NAME":"STARLINK-37200","OBJECT_ID":"2026-059U","EPOCH":"2026-04-12T18:07:52.073184","MEAN_MOTION":15.80889802,"ECCENTRICITY":0.000114,"INCLINATION":53.1582,"RA_OF_ASC_NODE":192.0176,"ARG_OF_PERICENTER":105.2357,"MEAN_ANOMALY":254.8791,"EPHEMERIS_TYPE":0,"CLASSIFICATION_TYPE":"U","NORAD_CAT_ID":68339,"ELEMENT_SET_NO":999,"REV_AT_EPOCH":336,"BSTAR":0.00059949,"MEAN_MOTION_DOT":0.00119362,"MEAN_MOTION_DDOT":0},{"OBJECT_NAME":"STARLINK-37185","OBJECT_ID":"2026-059V","EPOCH":"2026-04-12T20:00:01.999008","MEAN_MOTION":15.7864639,"ECCENTRICITY":0.0001176,"INCLINATION":53.1588,"RA_OF_ASC_NODE":191.6081,"ARG_OF_PERICENTER":88.8657,"MEAN_ANOMALY":1.2549,"EPHEMERIS_TYPE":0,"CLASSIFICATION_TYPE":"U","NORAD_CAT_ID":68340,"ELEMENT_SET_NO":999,"REV_AT_EPOCH":453,"BSTAR":-0.012263,"MEAN_MOTION_DOT":-0.01905649,"MEAN_MOTION_DDOT":0},{"OBJECT_NAME":"STARLINK-37181","OBJECT_ID":"2026-059W","EPOCH":"2026-04-12T18:04:41.462688","MEAN_MOTION":15.80526944,"ECCENTRICITY":0.0002956,"INCLINATION":53.1581,"RA_OF_ASC_NODE":192.0031,"ARG_OF_PERICENTER":55.119,"MEAN_ANOMALY":305.011,"EPHEMERIS_TYPE":0,"CLASSIFICATION_TYPE":"U","NORAD_CAT_ID":68341,"ELEMENT_SET_NO":999,"REV_AT_EPOCH":336,"BSTAR":-0.0019421,"MEAN_MOTION_DOT":-0.00362729,"MEAN_MOTION_DDOT":0},{"OBJECT_NAME":"STARLINK-37192","OBJECT_ID":"2026-059X","EPOCH":"2026-04-12T20:00:01.999008","MEAN_MOTION":15.56678492,"ECCENTRICITY":9.62e-5,"INCLINATION":53.1594,"RA_OF_ASC_NODE":192.0707,"ARG_OF_PERICENTER":83.7965,"MEAN_ANOMALY":138.305,"EPHEMERIS_TYPE":0,"CLASSIFICATION_TYPE":"U","NORAD_CAT_ID":68342,"ELEMENT_SET_NO":999,"REV_AT_EPOCH":453,"BSTAR":-0.013928,"MEAN_MOTION_DOT":-0.00918218,"MEAN_MOTION_DDOT":0},{"OBJECT_NAME":"STARLINK-37158","OBJECT_ID":"2026-059Y","EPOCH":"2026-04-11T23:48:58.192416","MEAN_MOTION":15.80941664,"ECCENTRICITY":0.0002087,"INCLINATION":53.158,"RA_OF_ASC_NODE":195.7892,"ARG_OF_PERICENTER":54.8033,"MEAN_ANOMALY":305.3185,"EPHEMERIS_TYPE":0,"CLASSIFICATION_TYPE":"U","NORAD_CAT_ID":68343,"ELEMENT_SET_NO":999,"REV_AT_EPOCH":324,"BSTAR":0.0017278847,"MEAN_MOTION_DOT":0.00355884,"MEAN_MOTION_DDOT":0},{"OBJECT_NAME":"STARLINK-36380","OBJECT_ID":"2026-059Z","EPOCH":"2026-04-12T20:00:01.999008","MEAN_MOTION":15.73272047,"ECCENTRICITY":0.0001025,"INCLINATION":53.1592,"RA_OF_ASC_NODE":191.6346,"ARG_OF_PERICENTER":68.8837,"MEAN_ANOMALY":7.1578,"EPHEMERIS_TYPE":0,"CLASSIFICATION_TYPE":"U","NORAD_CAT_ID":68344,"ELEMENT_SET_NO":999,"REV_AT_EPOCH":453,"BSTAR":-0.015282,"MEAN_MOTION_DOT":-0.01874093,"MEAN_MOTION_DDOT":0},{"OBJECT_NAME":"STARLINK-37214","OBJECT_ID":"2026-059AA","EPOCH":"2026-04-12T20:00:01.999008","MEAN_MOTION":15.76394216,"ECCENTRICITY":0.0001086,"INCLINATION":53.1592,"RA_OF_ASC_NODE":191.5662,"ARG_OF_PERICENTER":69.1167,"MEAN_ANOMALY":40.2465,"EPHEMERIS_TYPE":0,"CLASSIFICATION_TYPE":"U","NORAD_CAT_ID":68345,"ELEMENT_SET_NO":999,"REV_AT_EPOCH":453,"BSTAR":-0.013106,"MEAN_MOTION_DOT":-0.01848027,"MEAN_MOTION_DDOT":0},{"OBJECT_NAME":"STARLINK-37169","OBJECT_ID":"2026-059AB","EPOCH":"2026-04-12T20:00:01.999008","MEAN_MOTION":15.7419334,"ECCENTRICITY":0.0001073,"INCLINATION":53.159,"RA_OF_ASC_NODE":191.5784,"ARG_OF_PERICENTER":80.1351,"MEAN_ANOMALY":22.9732,"EPHEMERIS_TYPE":0,"CLASSIFICATION_TYPE":"U","NORAD_CAT_ID":68346,"ELEMENT_SET_NO":999,"REV_AT_EPOCH":453,"BSTAR":-0.014499,"MEAN_MOTION_DOT":-0.0185404,"MEAN_MOTION_DDOT":0},{"OBJECT_NAME":"STARLINK-37136","OBJECT_ID":"2026-059AC","EPOCH":"2026-04-12T17:57:03.398400","MEAN_MOTION":15.80968411,"ECCENTRICITY":7.8e-5,"INCLINATION":53.158,"RA_OF_ASC_NODE":191.9668,"ARG_OF_PERICENTER":104.9066,"MEAN_ANOMALY":255.2043,"EPHEMERIS_TYPE":0,"CLASSIFICATION_TYPE":"U","NORAD_CAT_ID":68347,"ELEMENT_SET_NO":999,"REV_AT_EPOCH":336,"BSTAR":0.0010579,"MEAN_MOTION_DOT":0.00214294,"MEAN_MOTION_DDOT":0},{"OBJECT_NAME":"STARLINK-37182","OBJECT_ID":"2026-059AD","EPOCH":"2026-04-12T20:00:01.999008","MEAN_MOTION":15.76266571,"ECCENTRICITY":0.0001062,"INCLINATION":53.1589,"RA_OF_ASC_NODE":191.576,"ARG_OF_PERICENTER":69.335,"MEAN_ANOMALY":35.2599,"EPHEMERIS_TYPE":0,"CLASSIFICATION_TYPE":"U","NORAD_CAT_ID":68348,"ELEMENT_SET_NO":999,"REV_AT_EPOCH":453,"BSTAR":-0.013184,"MEAN_MOTION_DOT":-0.01848394,"MEAN_MOTION_DDOT":0},{"OBJECT_NAME":"STARLINK-37183","OBJECT_ID":"2026-059AE","EPOCH":"2026-04-12T17:55:58.319328","MEAN_MOTION":15.80978427,"ECCENTRICITY":7.96e-5,"INCLINATION":53.1582,"RA_OF_ASC_NODE":191.9623,"ARG_OF_PERICENTER":122.1032,"MEAN_ANOMALY":238.0068,"EPHEMERIS_TYPE":0,"CLASSIFICATION_TYPE":"U","NORAD_CAT_ID":68349,"ELEMENT_SET_NO":999,"REV_AT_EPOCH":336,"BSTAR":0.0010741,"MEAN_MOTION_DOT":0.00217784,"MEAN_MOTION_DDOT":0},{"OBJECT_NAME":"CENTISPACE-1 OBJECT A","OBJECT_ID":"2026-060A","EPOCH":"2026-04-10T13:05:25.653984","MEAN_MOTION":14.7416855,"ECCENTRICITY":0.00145489,"INCLINATION":54.9791,"RA_OF_ASC_NODE":311.671,"ARG_OF_PERICENTER":308.4164,"MEAN_ANOMALY":51.5528,"EPHEMERIS_TYPE":0,"CLASSIFICATION_TYPE":"U","NORAD_CAT_ID":68350,"ELEMENT_SET_NO":999,"REV_AT_EPOCH":279,"BSTAR":-0.071553113,"MEAN_MOTION_DOT":-0.00450719,"MEAN_MOTION_DDOT":0},{"OBJECT_NAME":"CENTISPACE-1 OBJECT B","OBJECT_ID":"2026-060B","EPOCH":"2026-04-12T20:26:21.252768","MEAN_MOTION":14.73760028,"ECCENTRICITY":0.0010601,"INCLINATION":54.9815,"RA_OF_ASC_NODE":302.2763,"ARG_OF_PERICENTER":332.1367,"MEAN_ANOMALY":27.9063,"EPHEMERIS_TYPE":0,"CLASSIFICATION_TYPE":"U","NORAD_CAT_ID":68351,"ELEMENT_SET_NO":999,"REV_AT_EPOCH":313,"BSTAR":0.00017271,"MEAN_MOTION_DOT":9.32e-6,"MEAN_MOTION_DDOT":0},{"OBJECT_NAME":"CENTISPACE-1 OBJECT C","OBJECT_ID":"2026-060C","EPOCH":"2026-04-12T18:46:29.086176","MEAN_MOTION":14.73617049,"ECCENTRICITY":0.0008807,"INCLINATION":54.978,"RA_OF_ASC_NODE":302.5556,"ARG_OF_PERICENTER":348.4192,"MEAN_ANOMALY":11.6603,"EPHEMERIS_TYPE":0,"CLASSIFICATION_TYPE":"U","NORAD_CAT_ID":68352,"ELEMENT_SET_NO":999,"REV_AT_EPOCH":312,"BSTAR":1.7699e-5,"MEAN_MOTION_DOT":-9.0e-7,"MEAN_MOTION_DDOT":0}]
